INTELSAT 10 (IS-10)     
1 26766U 01019A   25259.28864372 -.00000294  00000+0  00000+0 0  9995
2 26766   8.4160  62.0297 0003496 183.3104   9.0874  0.99080306 42869
INTELSAT 902 (IS-902)   
1 26900U 01039A   25254.43524777 -.00000285  00000+0  00000+0 0  9991
2 26900   5.4082  75.1842 0004238  93.6962 288.4277  1.00272233 87909
INTELSAT 904 (IS-904)   
1 27380U 02007A   25259.36410163 -.00000221  00000+0  00000+0 0  9990
2 27380   6.2309  72.4561 0003022 118.6032 268.1121  1.00270846 49029
DIRECTV 5 (TEMPO 1)     
1 27426U 02023A   25259.56189192 -.00000075  00000+0  00000+0 0  9993
2 27426   4.1739  78.7240 0003312 110.3744 258.8289  1.00271182 85382
INTELSAT 905 (IS-905)   
1 27438U 02027A   25256.13088727  .00000087  00000+0  00000+0 0  9994
2 27438   6.0518  73.1265 0002397 106.6982  82.4945  1.00273594 48581
GALAXY 3C (G-3C)        
1 27445U 02030A   25258.85125050 -.00000170  00000+0  00000+0 0  9992
2 27445   3.0319  81.4282 0002153  61.2268  64.0057  1.00271528 43747
INTELSAT 906 (IS-906)   
1 27513U 02041A   25259.45373145 -.00000005  00000+0  00000+0 0  9994
2 27513   5.1021  76.2921 0002564 130.2970  16.5767  1.00273593 84289
GALAXY 13 (HORIZONS-1)  
1 27954U 03044A   25259.51919449  .00000113  00000+0  00000+0 0  9996
2 27954   0.7053  87.8353 0002133  85.2724 219.5136  1.00271945 43828
INTELSAT 10-02          
1 28358U 04022A   25259.58355868 -.00000030  00000+0  00000+0 0  9997
2 28358   0.0279 259.0744 0000878 319.3045 346.5002  1.00272923 77814
XM-3 (RHYTHM)           
1 28626U 05008A   25259.55044721 -.00000219  00000+0  00000+0 0  9999
2 28626   0.0409 342.3673 0000156 249.2904 235.9389  1.00270304 39883
DIRECTV 8               
1 28659U 05019A   25259.56007191 -.00000018  00000+0  00000+0 0  9995
2 28659   0.0190 148.1228 0003108  43.9058 246.2999  1.00271752 74321
GALAXY 28 (G-28)        
1 28702U 05022A   25259.56613860 -.00000206  00000+0  00000+0 0  9993
2 28702   2.5892  82.3506 0001915  87.4907 301.0258  1.00272175 49245
GALAXY 16 (G-16)        
1 29236U 06023A   25259.56405860 -.00000146  00000+0  00000+0 0  9990
2 29236   0.0344 224.0757 0002655 317.7679 277.9745  1.00273144 70224
DIRECTV 9S              
1 29494U 06043A   25259.56362525 -.00000132  00000+0  00000+0 0  9993
2 29494   1.7098  84.2602 0002946  97.1235 276.0834  1.00271356 48642
GALAXY 17 (G-17)        
1 31307U 07016B   25259.55044721 -.00000225  00000+0  00000+0 0  9997
2 31307   2.2744  83.3788 0004605 142.2247 243.3156  1.00271693 67061
DIRECTV 10              
1 31862U 07032A   25259.38447741 -.00000122  00000+0  00000+0 0  9997
2 31862   0.0420 338.1749 0000705 276.0179 137.0031  1.00272058 42845
INTELSAT 11 (IS-11)     
1 32253U 07044B   25259.56171859  .00000036  00000+0  00000+0 0  9992
2 32253   2.8475  82.0345 0007899 121.3249 243.6584  0.99047646 65749
HORIZONS-2              
1 32388U 07063B   25259.56908529 -.00000272  00000+0  00000+0 0  9997
2 32388   1.8910  84.0227 0002220 135.1243 267.6992  1.00270746 65079
DIRECTV 11              
1 32729U 08013A   25259.56405860 -.00000145  00000+0  00000+0 0  9991
2 32729   0.0226 338.5090 0000182 257.3560 223.7652  1.00272006 42856
GALAXY 18 (G-18)        
1 32951U 08024A   25259.55929190  .00000006  00000+0  00000+0 0  9991
2 32951   0.0182 153.2425 0003115  34.6184 246.2226  1.00271912 43106
INTELSAT 25 (IS-25)     
1 33153U 08034A   25259.43475137 -.00000243  00000+0  00000+0 0  9995
2 33153   1.9974  83.7170 0005294 121.4332 275.4629  1.00268905 62957
GALAXY 19 (G-19)        
1 33376U 08045A   25259.56449193 -.00000159  00000+0  00000+0 0  9997
2 33376   0.0512 265.5326 0002793 279.3053 277.1432  1.00273348 62159
FM-5                    
1 35493U 09034A   25259.55044721 -.00000219  00000+0  00000+0 0  9992
2 35493   0.0417 269.0850 0000454 183.6386  15.0294  1.00270426 43905
INTELSAT 14 (IS-14)     
1 36097U 09064A   25259.48378058  .00000000  00000+0  00000+0 0  9998
2 36097   0.0197 139.4168 0002550  53.6542 291.7720  1.00268949 57866
INTELSAT 15 (IS-15)     
1 36106U 09067A   25259.60063208 -.00000205  00000+0  00000+0 0  9992
2 36106   0.0228 254.7002 0002370 295.9671 106.5040  1.00271776 38481
DIRECTV 12              
1 36131U 09075A   25259.56336525 -.00000123  00000+0  00000+0 0  9998
2 36131   0.0389   3.4238 0000168 182.2812 270.1402  1.00270008 43815
INTELSAT 16 (IS-16)     
1 36397U 10006A   25259.56856528 -.00000264  00000+0  00000+0 0  9994
2 36397   0.0340 278.0169 0002284 275.5425 290.6802  1.00270627 56919
XM-5                    
1 37185U 10053A   25259.56085191 -.00000042  00000+0  00000+0 0  9996
2 37185   0.0607 272.1226 0000210 155.7823  14.5593  1.00269225 54738
INTELSAT 17 (IS-17)     
1 37238U 10065B   25259.62930502 -.00000021  00000+0  00000+0 0  9997
2 37238   0.0166 196.4547 0002504 348.2024 103.7175  1.00271355 50506
INTELSAT 28 (IS-28)     
1 37392U 11016A   25259.43466470 -.00000244  00000+0  00000+0 0  9999
2 37392   1.0937  86.2034 0004290  98.5232 295.6879  1.00272308 50546
INTELSAT 18 (IS-18)     
1 37834U 11056A   25259.54802519  .00000000  00000+0  00000+0 0  9993
2 37834   0.0225 164.7364 0001809  18.1370 190.1452  1.00269186 51062
INTELSAT 22 (IS-22)     
1 38098U 12011A   25259.38387781 -.00000079  00000+0  00000+0 0  9996
2 38098   0.0289 246.0823 0002148 299.4423  20.3861  1.00274562  4441
INTELSAT 19 (IS-19)     
1 38356U 12030A   25259.58447578  .00000000  00000+0  00000+0 0  9990
2 38356   0.0180 158.9449 0002988  30.7091 182.5371  1.00270835 47704
INTELSAT 20 (IS-20)     
1 38740U 12043A   25259.59733874 -.00000044  00000+0  00000+0 0  9998
2 38740   0.0101 163.3381 0001786   3.8500 112.1469  1.00269748 48002
INTELSAT 21 (IS-21)     
1 38749U 12045A   25259.50087832 -.00000304  00000+0  00000+0 0  9995
2 38749   0.0252 254.2819 0001971 295.6559 288.0737  1.00271271 47784
INTELSAT 23 (IS-23)     
1 38867U 12057A   25259.50183166 -.00000304  00000+0  00000+0 0  9996
2 38867   0.0430 256.5879 0001526 353.5327 233.2519  1.00271778 47217
FM-6                    
1 39360U 13058A   25259.56067858 -.00000036  00000+0  00000+0 0  9994
2 39360   0.0196 141.0540 0002487  26.0476 274.3317  1.00269666 43314
INTELSAT 30 (IS-30)     
1 40271U 14062A   25259.56483860  .00000000  00000+0  00000+0 0  9998
2 40271   0.0197 132.2164 0001457 277.6127  54.2078  1.00267929  4041
DIRECTV 14              
1 40333U 14078B   25259.56405860  .00000000  00000+0  00000+0 0  9998
2 40333   0.0222 146.2443 0000593 136.7822 176.5653  1.00270096 39304
DIRECTV 15              
1 40663U 15026A   25259.56327859 -.00000122  00000+0  00000+0 0  9995
2 40663   0.0323  95.1537 0000138  85.0737 275.4516  1.00268753 37711
SKY MEXICO-1            
1 40664U 15026B   25259.55044721 -.00000254  00000+0  00000+0 0  9995
2 40664   0.0147 106.6022 0002164  85.4045 283.1367  1.00271135 37718
INTELSAT 34 (IS-34)     
1 40874U 15039A   25259.50131166 -.00000305  00000+0  00000+0 0  9994
2 40874   0.0172 248.2016 0001563 119.4836 112.9817  1.00269787 36889
INTELSAT 31 (IS-31)     
1 41581U 16035A   25258.63709619 -.00000168  00000+0  00000+0 0  9991
2 41581   0.0200 225.6745 0001811   7.0574 256.4047  1.00271085 33938
INTELSAT 36 (IS-36)     
1 41747U 16053A   25259.59725207  .00000000  00000+0  00000+0 0  9996
2 41747   0.0170 134.9664 0001744 201.3773 302.9327  1.00269643 33200
INTELSAT 32E (IS-32E)   
1 41945U 17007B   25259.50382500 -.00000288  00000+0  00000+0 0  9991
2 41945   0.0166 108.0649 0000401 229.9103 155.9216  1.00269719 31487
INTELSAT 35E (IS-35E)   
1 42818U 17041A   25259.43414469 -.00000257  00000+0  00000+0 0  9997
2 42818   0.0245 250.1510 0002716 323.8428 263.4338  1.00272389 30077
INTELSAT 37E (IS-37E)   
1 42950U 17059A   25259.42961273 -.00000160  00000+0  00000+0 0  9995
2 42950   0.0191 203.0107 0002938 346.1384 303.1369  1.00271730 29329
AZERSPACE 2 (IS-38)     
1 43632U 18074A   25259.56641766  .00000000  00000+0  00000+0 0  9990
2 43632   0.0240 155.9705 0001434  25.5852  63.2163  1.00271019 25703
HORIZONS-3E             
1 43633U 18074B   25259.47780865 -.00000050  00000+0  00000+0 0  9991
2 43633   0.0213 252.3713 0001893  36.5051  47.8125  1.00271903 25592
AT&T T-16               
1 44333U 19034A   25259.56371192 -.00000134  00000+0  00000+0 0  9998
2 44333   0.0225 102.5918 0000071  28.8339 326.4063  1.00269023 22893
INTELSAT 39 (IS-39)     
1 44476U 19049B   25259.62214455  .00000014  00000+0  00000+0 0  9993
2 44476   0.0146 176.2311 0000664 151.8806 313.6177  1.00270604 22387
GALAXY 30 (G-30)        
1 46114U 20056C   25257.98881454  .00000000  00000+0  00000+0 0  9995
2 46114   0.0233 142.0350 0002272  45.3253  37.8201  1.00272116 18534
GALAXY 33 (G-33)        
1 54026U 22128A   25259.57822628  .00000059  00000+0  00000+0 0  9997
2 54026   0.0199 252.8492 0001829 293.1343 244.9490  1.00273705 10991
GALAXY 34 (G-34)        
1 54027U 22128B   25259.55816523  .00000000  00000+0  00000+0 0  9999
2 54027   0.0195 184.5845 0001431 351.3609 251.8143  1.00270645 11164
GALAXY 31 (G-31)        
1 54243U 22153A   25259.55972524 -.00000006  00000+0  00000+0 0  9998
2 54243   0.0197 217.8057 0001585 352.5321 225.9159  1.00271740  4387
GALAXY 32 (G-32)        
1 54244U 22153B   25259.56570527  .00000000  00000+0  00000+0 0  9990
2 54244   0.0184 150.6756 0000362 127.0433 190.6942  1.00268490 10401
GALAXY 35 (G-35)        
1 54741U 22170A   25259.06566477 -.00000181  00000+0  00000+0 0  9996
2 54741   0.0158 130.8343 0001952  50.1258 104.8504  1.00271860 10140
GALAXY 36 (G-36)        
1 54742U 22170B   25259.56605193 -.00000204  00000+0  00000+0 0  9997
2 54742   0.0093 158.3348 0001687 347.8829 324.3175  1.00270605 10031
GALAXY 37 (G-37)        
1 57493U 23112A   25259.55851190  .00000000  00000+0  00000+0 0  9992
2 57493   0.0219 140.5186 0002144  55.1933 234.1020  1.00270677  7799
